OBJECT_NAME,OBJECT_ID,EPOCH,MEAN_MOTION,ECCENTRICITY,INCLINATION,RA_OF_ASC_NODE,ARG_OF_PERICENTER,MEAN_ANOMALY,EPHEMERIS_TYPE,CLASSIFICATION_TYPE,NORAD_CAT_ID,ELEMENT_SET_NO,REV_AT_EPOCH,BSTAR,MEAN_MOTION_DOT,MEAN_MOTION_DDOT
ALOS-2,2014-029A,2026-06-08T06:42:08.285184,14.79470096,.00016654,97.9210,256.5705,91.6182,268.5220,0,U,39766,999,65026,.14460381E-3,.1029E-4,0
KAZEOSAT 2,2014-033A,2026-06-08T06:30:22.018752,14.85460341,.00087801,97.5415,359.3539,359.9470,0.1744,0,U,40010,999,64763,.68972766E-4,.545E-5,0
HODOYOSHI-4,2014-033B,2026-06-08T07:01:39.178848,14.88109113,.0023285,97.5459,344.5448,339.1283,20.8982,0,U,40011,999,64748,.13293672E-3,.1176E-4,0
DEIMOS-2,2014-033D,2026-06-08T06:34:02.606592,14.93704094,.00020455,97.5837,34.0750,59.4926,300.6497,0,U,40013,999,63639,.21980766E-3,.2271E-4,0
HODOYOSHI-3,2014-033F,2026-06-08T00:33:50.497632,14.85370547,.00335004,97.6412,322.4336,27.2469,333.0495,0,U,40015,999,64626,.14919427E-3,.1244E-4,0
SPOT 7,2014-034A,2026-06-08T06:40:17.656032,14.60951145,.00011953,98.0627,221.9991,84.5761,275.5576,0,U,40053,999,63583,.11373844E-3,.512E-5,0
SKYSAT-B,2014-037D,2026-06-07T18:40:35.061312,14.88004373,.000461,98.3832,117.2073,320.3050,39.7827,0,U,40072,999,64456,.18161183E-3,.1606E-4,0
WORLDVIEW-3 (WV-3),2014-048A,2026-06-08T06:33:17.596512,14.85007618,.00016625,97.8566,234.2290,39.4583,320.6752,0,U,40115,999,64058,.10933366E-3,.879E-5,0
GAOFEN-2,2014-049A,2026-06-08T07:47:56.640768,14.80888176,.00058964,98.0106,223.5405,262.4816,97.5726,0,U,40118,999,63792,.47179973E-4,.311E-5,0
YAOGAN-21,2014-053A,2026-06-08T07:29:19.284864,15.26244211,.00096519,97.1478,199.9293,118.6532,241.5679,0,U,40143,999,65360,.28705321E-3,.7376E-4,0
YAOGAN-22,2014-063A,2026-06-08T03:15:16.911360,13.15530907,.00061375,100.7713,310.2590,205.9601,154.1203,0,U,40275,999,55862,.12473406E-3,0,0
ASNARO,2014-070A,2026-06-08T06:26:24.544896,15.19304615,.00047011,97.3448,235.6246,194.3995,165.7107,0,U,40298,999,64265,.36535508E-3,.765E-4,0
YAOGAN-24,2014-072A,2026-06-08T08:07:07.334112,14.76211291,.00126926,98.1480,296.6023,295.1538,64.8354,0,U,40310,999,62241,.10119697E-3,.648E-5,0
CBERS 4,2014-079A,2026-06-08T07:47:13.552224,14.35506892,.00020452,98.3530,216.4339,71.4531,288.6878,0,U,40336,999,60268,.50089594E-4,.102E-5,0
YAOGAN-26,2014-088A,2026-06-08T06:32:56.124384,15.46995604,.00066034,97.0647,159.6941,86.9451,273.2555,0,U,40362,999,63632,.47070549E-3,.23729E-3,0
SMAP,2015-003A,2026-06-08T06:13:25.393152,14.63358903,.00012677,98.1276,166.4804,93.8030,266.3317,0,U,40376,999,60631,.97432794E-4,.456E-5,0
KOMPSAT-3A,2015-014A,2026-06-08T05:25:00.157728,15.53585287,.00557357,97.6888,149.9355,207.0962,152.7380,0,U,40536,999,62042,.27715876E-3,.18788E-3,0
SENTINEL-2A,2015-028A,2026-06-08T06:19:38.044128,14.30821200,.00010762,98.5679,234.2418,88.4905,271.6401,0,U,40697,999,57245,.47828499E-4,.82E-6,0
GAOFEN-8,2015-030A,2026-06-08T06:48:54.831744,15.45625771,.00080308,97.6914,352.1217,220.0722,139.9935,0,U,40701,999,61007,.33909335E-3,.16266E-3,0
CARBONITE 1 (CBNT-1),2015-032D,2026-06-08T06:42:38.831904,14.83560929,.0013788,97.6510,337.7197,329.7587,30.2831,0,U,40718,999,58802,.19538283E-3,.1561E-4,0
YAOGAN-27,2015-040A,2026-06-08T06:52:04.491840,13.16068981,.00074758,100.1155,146.0556,232.9154,127.1276,0,U,40878,999,51649,-.51828774E-3,-.239E-5,0
GAOFEN-9 01,2015-047A,2026-06-08T06:58:11.457696,14.82867029,.00277113,97.6283,195.3892,166.2191,193.9786,0,U,40894,999,57887,.13053797E-3,.1013E-4,0
YAOGAN-28,2015-064A,2026-06-08T06:45:43.625952,15.27303262,.00098284,97.3064,297.7265,215.6751,144.3833,0,U,41026,999,58932,.24129779E-3,.6389E-4,0
YAOGAN-29,2015-069A,2026-06-08T06:31:41.193984,14.83076999,.00029421,98.0031,187.8908,67.5193,292.6332,0,U,41038,999,56930,.7290732E-5,.5E-7,0
KENT RIDGE 1,2015-077B,2026-06-08T03:01:49.323648,15.23078072,.00082508,14.9808,333.3719,110.5670,249.5537,0,U,41167,999,57971,.15975572E-3,.4648E-4,0
GAOFEN-4,2015-083A,2026-06-06T19:06:26.328384,1.00269078,.00043587,0.3301,83.7532,108.8481,94.9007,0,U,41194,999,3842,0,-.321E-5,0
JASON-3,2016-002A,2026-06-08T07:17:11.668992,12.87627845,.00085946,66.0391,144.5119,273.1256,86.8779,0,U,41240,999,48610,.1073006E-3,-.35E-6,0
SENTINEL-3A,2016-011A,2026-06-08T05:45:30.993984,14.26737558,.00013481,98.6249,226.7517,104.4338,255.6992,0,U,41335,999,53678,.60695794E-4,.103E-5,0
ZIYUAN 3-02 (ZY 3-02),2016-033A,2026-06-08T07:27:37.013184,15.21395488,.00116412,97.3834,235.2548,325.1032,34.9439,0,U,41556,999,55663,.2249005E-3,.4984E-4,0
CARTOSAT-2C,2016-040A,2026-06-08T07:12:56.889216,15.19250653,.0009761,97.4484,219.4003,159.5445,200.6183,0,U,41599,999,55236,.25824556E-3,.5381E-4,0
