ALOS-2                  
1 39766U 14029A   26159.27926256  .00001029  00000+0  14460-3 0  9998
2 39766  97.9210 256.5705 0001665  91.6182 268.5220 14.79470096650267
KAZEOSAT 2              
1 40010U 14033A   26159.27108818  .00000545  00000+0  68973-4 0  9994
2 40010  97.5415 359.3539 0008780 359.9470   0.1744 14.85460341647633
HODOYOSHI-4             
1 40011U 14033B   26159.29281457  .00001176  00000+0  13294-3 0  9994
2 40011  97.5459 344.5448 0023285 339.1283  20.8982 14.88109113647482
DEIMOS-2                
1 40013U 14033D   26159.27364128  .00002271  00000+0  21981-3 0  9990
2 40013  97.5837  34.0750 0002045  59.4926 300.6497 14.93704094636391
HODOYOSHI-3             
1 40015U 14033F   26159.02350113  .00001244  00000+0  14919-3 0  9996
2 40015  97.6412 322.4336 0033500  27.2469 333.0495 14.85370547646260
SPOT 7                  
1 40053U 14034A   26159.27798213  .00000512  00000+0  11374-3 0  9992
2 40053  98.0627 221.9991 0001195  84.5761 275.5576 14.60951145635834
SKYSAT-B                
1 40072U 14037D   26158.77818358  .00001606  00000+0  18161-3 0  9999
2 40072  98.3832 117.2073 0004610 320.3050  39.7827 14.88004373644562
WORLDVIEW-3 (WV-3)      
1 40115U 14048A   26159.27312033  .00000879  00000+0  10933-3 0  9994
2 40115  97.8566 234.2290 0001662  39.4583 320.6752 14.85007618640581
GAOFEN-2                
1 40118U 14049A   26159.32496112  .00000311  00000+0  47180-4 0  9991
2 40118  98.0106 223.5405 0005896 262.4816  97.5726 14.80888176637922
YAOGAN-21               
1 40143U 14053A   26159.31202876  .00007376  00000+0  28705-3 0  9994
2 40143  97.1478 199.9293 0009651 118.6532 241.5679 15.26244211653601
YAOGAN-22               
1 40275U 14063A   26159.13561240  .00000000  00000+0  12473-3 0  9996
2 40275 100.7713 310.2590 0006137 205.9601 154.1203 13.15530907558625
ASNARO                  
1 40298U 14070A   26159.26833964  .00007650  00000+0  36536-3 0  9992
2 40298  97.3448 235.6246 0004701 194.3995 165.7107 15.19304615642655
YAOGAN-24               
1 40310U 14072A   26159.33827933  .00000648  00000+0  10120-3 0  9997
2 40310  98.1480 296.6023 0012692 295.1538  64.8354 14.76211291622410
CBERS 4                 
1 40336U 14079A   26159.32446241  .00000102  00000+0  50090-4 0  9996
2 40336  98.3530 216.4339 0002045  71.4531 288.6878 14.35506892602688
YAOGAN-26               
1 40362U 14088A   26159.27287181  .00023729  00000+0  47071-3 0  9999
2 40362  97.0647 159.6941 0006603  86.9451 273.2555 15.46995604636321
SMAP                    
1 40376U 15003A   26159.25932168  .00000456  00000+0  97433-4 0  9992
2 40376  98.1276 166.4804 0001267  93.8030 266.3317 14.63358903606319
KOMPSAT-3A              
1 40536U 15014A   26159.22569627  .00018788  00000+0  27716-3 0  9998
2 40536  97.6888 149.9355 0055735 207.0962 152.7380 15.53585287620422
SENTINEL-2A             
1 40697U 15028A   26159.26363477  .00000082  00000+0  47828-4 0  9995
2 40697  98.5679 234.2418 0001076  88.4905 271.6401 14.30821200572459
GAOFEN-8                
1 40701U 15030A   26159.28396796  .00016266  00000+0  33909-3 0  9991
2 40701  97.6914 352.1217 0008030 220.0722 139.9935 15.45625771610073
CARBONITE 1 (CBNT-1)    
1 40718U 15032D   26159.27961611  .00001561  00000+0  19538-3 0  9998
2 40718  97.6510 337.7197 0013788 329.7587  30.2831 14.83560929588022
YAOGAN-27               
1 40878U 15040A   26159.28616310 -.00000239  00000+0 -51829-3 0  9990
2 40878 100.1155 146.0556 0007475 232.9154 127.1276 13.16068981516492
GAOFEN-9 01             
1 40894U 15047A   26159.29041039  .00001013  00000+0  13054-3 0  9993
2 40894  97.6283 195.3892 0027711 166.2191 193.9786 14.82867029578878
YAOGAN-28               
1 41026U 15064A   26159.28175493  .00006389  00000+0  24130-3 0  9999
2 41026  97.3064 297.7265 0009828 215.6751 144.3833 15.27303262589320
YAOGAN-29               
1 41038U 15069A   26159.27200456  .00000005  00000+0  72907-5 0  9990
2 41038  98.0031 187.8908 0002942  67.5193 292.6332 14.83076999569304
KENT RIDGE 1            
1 41167U 15077B   26159.12626532  .00004648  00000+0  15976-3 0  9991
2 41167  14.9808 333.3719 0008250 110.5670 249.5537 15.23078072579714
GAOFEN-4                
1 41194U 15083A   26157.79613806 -.00000321  00000+0  00000+0 0  9992
2 41194   0.3301  83.7532 0004358 108.8481  94.9007  1.00269078 38425
JASON-3                 
1 41240U 16002A   26159.30360728 -.00000035  00000+0  10730-3 0  9994
2 41240  66.0391 144.5119 0008594 273.1256  86.8779 12.87627845486109
SENTINEL-3A             
1 41335U 16011A   26159.23994206  .00000103  00000+0  60696-4 0  9997
2 41335  98.6249 226.7517 0001348 104.4338 255.6992 14.26737558536780
ZIYUAN 3-02 (ZY 3-02)   
1 41556U 16033A   26159.31084506  .00004984  00000+0  22490-3 0  9998
2 41556  97.3834 235.2548 0011641 325.1032  34.9439 15.21395488556638
CARTOSAT-2C             
1 41599U 16040A   26159.30065844  .00005381  00000+0  25825-3 0  9993
2 41599  97.4484 219.4003 0009761 159.5445 200.6183 15.19250653552369
